GLOBALSTAR M024 [-]     
1 25883U 99043A   23237.47730792 -.00000121  00000+0 -19878-2 0  9997
2 25883  52.0013  73.6453 0002145  82.4641 284.7648 11.10152322 41376
GLOBALSTAR M027 [-]     
1 25884U 99043B   23237.03373428 -.00000073  00000+0 -33828-3 0  9997
2 25884  52.0200 133.8796 0021795   2.9091 357.1826 11.04365986 68087
GLOBALSTAR M054 [-]     
1 25885U 99043C   23237.54813603 -.00000035  00000+0  92638-3 0  9999
2 25885  52.0176  11.0572 0005242 104.9325 335.2845 11.39204749 43641
GLOBALSTAR M053 [-]     
1 25886U 99043D   23237.45745934 -.00000048  00000+0  58710-3 0  9998
2 25886  51.9973 281.6672 0003280  42.4090  63.2132 11.27650174 44794
GLOBALSTAR M058 [-]     
1 25907U 99049A   23237.01033186 -.00000061  00000+0  31988-3 0  9992
2 25907  51.9938  77.3048 0003042  72.4028 287.7139 11.93165010462490
GLOBALSTAR M050 [-]     
1 25908U 99049B   23237.14390029 -.00000022  00000+0  74603-3 0  9997
2 25908  51.9983 134.0847 0008862 148.6185   1.8691 12.07421999 68211
GLOBALSTAR M033 [-]     
1 25909U 99049C   23237.51320999 -.00000088  00000+0  31094-4 0  9998
2 25909  51.9919  50.6033 0011714   1.0139 359.0730 12.20259842454966
GLOBALSTAR M055 [-]     
1 25910U 99049D   23237.37804308 -.00000099  00000+0 -41429-4 0  9991
2 25910  52.0015  93.9362 0006479 192.1189 167.9508 12.29385773 86884
